ISS (ZARYA)             
1 25544U 98067A   26052.76529869  .00010666  00000+0  20704-3 0  9991
2 25544  51.6320 151.0701 0008511 119.8639 240.3195 15.48189327553865
CSS (TIANHE)            
1 48274U 21035A   26052.90580858  .00015335  00000+0  18817-3 0  9998
2 48274  41.4670 304.1498 0004996 166.7243 193.3728 15.59974430275144
ISS (NAUKA)             
1 49044U 21066A   26052.76529869  .00010666  00000+0  20704-3 0  9997
2 49044  51.6320 151.0701 0008511 119.8639 240.3195 15.48189327230442
CSS (WENTIAN)           
1 53239U 22085A   26052.90580858  .00015335  00000+0  18817-3 0  9991
2 53239  41.4670 304.1498 0004996 166.7243 193.3728 15.59974430173845
CSS (MENGTIAN)          
1 54216U 22143A   26052.90580858  .00015335  00000+0  18817-3 0  9992
2 54216  41.4670 304.1498 0004996 166.7243 193.3728 15.59974430158642
PROGRESS-MS 31          
1 64751U 25146A   26052.76529869  .00010666  00000+0  20704-3 0  9992
2 64751  51.6320 151.0701 0008511 119.8639 240.3195 15.48189327  6759
TIANZHOU-9              
1 64786U 25149A   26052.90580858  .00015335  00000+0  18817-3 0  9994
2 64786  41.4670 304.1498 0004996 166.7243 193.3728 15.59974430255306
DRAGON CRS-33           
1 65304U 25186A   26052.76529869  .00010666  00000+0  20704-3 0  9991
2 65304  51.6320 151.0701 0008511 119.8639 240.3195 15.48189327   118
PROGRESS-MS 32          
1 65586U 25204A   26052.76529869  .00010666  00000+0  20704-3 0  9994
2 65586  51.6320 151.0701 0008511 119.8639 240.3195 15.48189327   277
CYGNUS NG-23            
1 65616U 25208A   26052.76529869  .00010666  00000+0  20704-3 0  9992
2 65616  51.6320 151.0701 0008511 119.8639 240.3195 15.48189327   226
ISS OBJECT XK           
1 65731U 98067XK  26052.61765005  .00398643  72676-4  11141-2 0  9992
2 65731  51.6198 131.9863 0007181   2.0075 358.0959 15.93063945 24321
